{"type": "FeatureCollection", "features": [ {"type": "Feature", "properties": {"norad_id": 35585, "name": "COSMOS 2251 DEB", "group": "cosmos-2251-debris", "lat": -73.44745388786579, "lon": -71.08862950095404, "alt_km": 759.8584622467351, "timestamp": "2025-12-03T06:58:43.638348+00:00", "meta": {"OBJECT_NAME": "COSMOS 2251 DEB", "OBJECT_ID": "1993-036AMC", "EPOCH": "2025-12-02T12:56:40.811136", "MEAN_MOTION": 13.75197617, "ECCENTRICITY": 0.03106301, "INCLINATION": 73.9718, "RA_OF_ASC_NODE": 5.4431, "ARG_OF_PERICENTER": 279.6941, "MEAN_ANOMALY": 236.0495, "EPHEMERIS_TYPE": 0, "CLASSIFICATION_TYPE": "U", "NORAD_CAT_ID": 35585, "ELEMENT_SET_NO": 999, "REV_AT_EPOCH": 63923, "BSTAR": 0.0014709155, "MEAN_MOTION_DOT": 1.977e-05, "MEAN_MOTION_DDOT": 0}, "tle": {"line1": "1 35585U 93036AMC 25336.53936124  .00001977  00000+0  14709-2 0  9995", "line2": "2 35585  73.9718   5.4431 0310630 279.6941 236.0495 13.75197617639230"}}, "geometry": {"type": "Point", "coordinates": [-71.08862950095404, -73.44745388786579]}}, {"type": "Feature", "properties": {"norad_id": 35586, "name": "COSMOS 2251 DEB", "group": "cosmos-2251-debris", "lat": 11.751090745460578, "lon": 134.19871414953215, "alt_km": 794.9939662651077, "timestamp": "2025-12-03T06:58:43.638359+00:00", "meta": {"OBJECT_NAME": "COSMOS 2251 DEB", "OBJECT_ID": "1993-036AMD", "EPOCH": "2025-12-02T16:49:03.133344", "MEAN_MOTION": 13.52074918, "ECCENTRICITY": 0.0405115, "INCLINATION": 74.0205, "RA_OF_ASC_NODE": 318.5607, "ARG_OF_PERICENTER": 196.0051, "MEAN_ANOMALY": 342.7339, "EPHEMERIS_TYPE": 0, "CLASSIFICATION_TYPE": "U", "NORAD_CAT_ID": 35586, "ELEMENT_SET_NO": 999, "REV_AT_EPOCH": 60246, "BSTAR": 0.00045412, "MEAN_MOTION_DOT": 4.79e-06, "MEAN_MOTION_DDOT": 0}, "tle": {"line1": "1 35586U 93036AMD 25336.70073071  .00000479  00000+0  45412-3 0  9990", "line2": "2 35586  74.0205 318.5607 0405115 196.0051 342.7339 13.52074918602464"}}, "geometry": {"type": "Point", "coordinates": [134.19871414953215, 11.751090745460578]}}, {"type": "Feature", "properties": {"norad_id": 35587, "name": "COSMOS 2251 DEB", "group": "cosmos-2251-debris", "lat": -55.97654379370399, "lon": 51.6841488356119, "alt_km": 602.975421414204, "timestamp": "2025-12-03T06:58:43.638369+00:00", "meta": {"OBJECT_NAME": "COSMOS 2251 DEB", "OBJECT_ID": "1993-036AME", "EPOCH": "2025-12-02T13:17:52.139616", "MEAN_MOTION": 14.71455583, "ECCENTRICITY": 0.01027177, "INCLINATION": 74.0049, "RA_OF_ASC_NODE": 78.2618, "ARG_OF_PERICENTER": 268.1186, "MEAN_ANOMALY": 90.8219, "EPHEMERIS_TYPE": 0, "CLASSIFICATION_TYPE": "U", "NORAD_CAT_ID": 35587, "ELEMENT_SET_NO": 999, "REV_AT_EPOCH": 66196, "BSTAR": 0.00042147374, "MEAN_MOTION_DOT": 2.801e-05, "MEAN_MOTION_DDOT": 0}, "tle": {"line1": "1 35587U 93036AME 25336.55407569  .00002801  00000+0  42147-3 0  9990", "line2": "2 35587  74.0049  78.2618 0102717 268.1186  90.8219 14.71455583661966"}}, "geometry": {"type": "Point", "coordinates": [51.6841488356119, -55.97654379370399]}}, {"type": "Feature", "properties": {"norad_id": 35593, "name": "COSMOS 2251 DEB", "group": "cosmos-2251-debris", "lat": -11.30169173916044, "lon": 128.72606626591886, "alt_km": 850.687726105507, "timestamp": "2025-12-03T06:58:43.638379+00:00", "meta": {"OBJECT_NAME": "COSMOS 2251 DEB", "OBJECT_ID": "1993-036AML", "EPOCH": "2025-12-02T08:10:41.646720", "MEAN_MOTION": 14.25498697, "ECCENTRICITY": 0.01053488, "INCLINATION": 74.0851, "RA_OF_ASC_NODE": 307.1662, "ARG_OF_PERICENTER": 315.9582, "MEAN_ANOMALY": 43.3207, "EPHEMERIS_TYPE": 0, "CLASSIFICATION_TYPE": "U", "NORAD_CAT_ID": 35593, "ELEMENT_SET_NO": 999, "REV_AT_EPOCH": 84917, "BSTAR": 0.0018161686, "MEAN_MOTION_DOT": 4.526e-05, "MEAN_MOTION_DDOT": 0}, "tle": {"line1": "1 35593U 93036AML 25336.34075980  .00004526  00000+0  18162-2 0  9997", "line2": "2 35593  74.0851 307.1662 0105348 315.9582  43.3207 14.25498697849174"}}, "geometry": {"type": "Point", "coordinates": [128.72606626591886, -11.30169173916044]}}, {"type": "Feature", "properties": {"norad_id": 35594, "name": "COSMOS 2251 DEB", "group": "cosmos-2251-debris", "lat": -2.9045220963766454, "lon": -53.514261760836014, "alt_km": 595.8996542158866, "timestamp": "2025-12-03T06:58:43.638389+00:00", "meta": {"OBJECT_NAME": "COSMOS 2251 DEB", "OBJECT_ID": "1993-036AMM", "EPOCH": "2025-12-01T02:30:04.449024", "MEAN_MOTION": 14.8736155, "ECCENTRICITY": 0.00313469, "INCLINATION": 73.8065, "RA_OF_ASC_NODE": 130.0573, "ARG_OF_PERICENTER": 241.1394, "MEAN_ANOMALY": 118.6638, "EPHEMERIS_TYPE": 0, "CLASSIFICATION_TYPE": "U", "NORAD_CAT_ID": 35594, "ELEMENT_SET_NO": 999, "REV_AT_EPOCH": 88012, "BSTAR": 0.00176297, "MEAN_MOTION_DOT": 0.00016075, "MEAN_MOTION_DDOT": 0}, "tle": {"line1": "1 35594U 93036AMM 25335.10421816  .00016075  00000+0  17630-2 0  9995", "line2": "2 35594  73.8065 130.0573 0031346 241.1394 118.6638 14.87361550880129"}}, "geometry": {"type": "Point", "coordinates": [-53.514261760836014, -2.9045220963766454]}}, {"type": "Feature", "properties": {"norad_id": 35602, "name": "COSMOS 2251 DEB", "group": "cosmos-2251-debris", "lat": 45.99562530708301, "lon": 5.237761776283237, "alt_km": 504.5003548461091, "timestamp": "2025-12-03T06:58:43.638399+00:00", "meta": {"OBJECT_NAME": "COSMOS 2251 DEB", "OBJECT_ID": "1993-036AMV", "EPOCH": "2025-12-02T16:35:45.865248", "MEAN_MOTION": 15.34560112, "ECCENTRICITY": 0.0090984, "INCLINATION": 73.9952, "RA_OF_ASC_NODE": 203.814, "ARG_OF_PERICENTER": 271.8548, "MEAN_ANOMALY": 151.0669, "EPHEMERIS_TYPE": 0, "CLASSIFICATION_TYPE": "U", "NORAD_CAT_ID": 35602, "ELEMENT_SET_NO": 999, "REV_AT_EPOCH": 89937, "BSTAR": 0.00053686, "MEAN_MOTION_DOT": 0.0002059, "MEAN_MOTION_DDOT": 0}, "tle": {"line1": "1 35602U 93036AMV 25336.69150307  .00020590  00000+0  53686-3 0  9993", "line2": "2 35602  73.9952 203.8140 0090984 271.8548 151.0669 15.34560112899378"}}, "geometry": {"type": "Point", "coordinates": [5.237761776283237, 45.99562530708301]}}, {"type": "Feature", "properties": {"norad_id": 35605, "name": "COSMOS 2251 DEB", "group": "cosmos-2251-debris", "lat": -60.43328279401461, "lon": -33.67530581964201, "alt_km": 462.4336671046767, "timestamp": "2025-12-03T06:58:43.638409+00:00", "meta": {"OBJECT_NAME": "COSMOS 2251 DEB", "OBJECT_ID": "1993-036AMY", "EPOCH": "2025-11-25T09:05:01.395168", "MEAN_MOTION": 15.26251894, "ECCENTRICITY": 0.00343964, "INCLINATION": 73.8732, "RA_OF_ASC_NODE": 13.9291, "ARG_OF_PERICENTER": 311.4103, "MEAN_ANOMALY": 48.4141, "EPHEMERIS_TYPE": 0, "CLASSIFICATION_TYPE": "U", "NORAD_CAT_ID": 35605, "ELEMENT_SET_NO": 999, "REV_AT_EPOCH": 65706, "BSTAR": 0.0065174874, "MEAN_MOTION_DOT": 0.00175767, "MEAN_MOTION_DDOT": 0}, "tle": {"line1": "1 35605U 93036AMY 25329.37848837  .00175767  00000+0  65175-2 0  9997", "line2": "2 35605  73.8732  13.9291 0034396 311.4103  48.4141 15.26251894657063"}}, "geometry": {"type": "Point", "coordinates": [-33.67530581964201, -60.43328279401461]}}, {"type": "Feature", "properties": {"norad_id": 35606, "name": "COSMOS 2251 DEB", "group": "cosmos-2251-debris", "lat": -36.29802131772209, "lon": 13.539529950925763, "alt_km": 1089.70749200727, "timestamp": "2025-12-03T06:58:43.638420+00:00", "meta": {"OBJECT_NAME": "COSMOS 2251 DEB", "OBJECT_ID": "1993-036AMZ", "EPOCH": "2025-12-01T13:59:58.207776", "MEAN_MOTION": 13.41178531, "ECCENTRICITY": 0.04578452, "INCLINATION": 73.8111, "RA_OF_ASC_NODE": 28.5794, "ARG_OF_PERICENTER": 235.9208, "MEAN_ANOMALY": 119.7645, "EPHEMERIS_TYPE": 0, "CLASSIFICATION_TYPE": "U", "NORAD_CAT_ID": 35606, "ELEMENT_SET_NO": 999, "REV_AT_EPOCH": 60890, "BSTAR": 0.0014608258, "MEAN_MOTION_DOT": 1.479e-05, "MEAN_MOTION_DDOT": 0}, "tle": {"line1": "1 35606U 93036AMZ 25335.58331259  .00001479  00000+0  14608-2 0  9996", "line2": "2 35606  73.8111  28.5794 0457845 235.9208 119.7645 13.41178531608900"}}, "geometry": {"type": "Point", "coordinates": [13.539529950925763, -36.29802131772209]}}, {"type": "Feature", "properties": {"norad_id": 35611, "name": "COSMOS 2251 DEB", "group": "cosmos-2251-debris", "lat": -61.420949534128255, "lon": 165.98310353039165, "alt_km": 645.6219191369173, "timestamp": "2025-12-03T06:58:43.638430+00:00", "meta": {"OBJECT_NAME": "COSMOS 2251 DEB", "OBJECT_ID": "1993-036ANE", "EPOCH": "2025-12-01T14:30:37.941120", "MEAN_MOTION": 14.72378528, "ECCENTRICITY": 0.00224128, "INCLINATION": 74.0218, "RA_OF_ASC_NODE": 201.0005, "ARG_OF_PERICENTER": 275.1179, "MEAN_ANOMALY": 84.7435, "EPHEMERIS_TYPE": 0, "CLASSIFICATION_TYPE": "U", "NORAD_CAT_ID": 35611, "ELEMENT_SET_NO": 999, "REV_AT_EPOCH": 87126, "BSTAR": 0.0019124254, "MEAN_MOTION_DOT": 0.00012147, "MEAN_MOTION_DDOT": 0}, "tle": {"line1": "1 35611U 93036ANE 25335.60460580  .00012147  00000+0  19124-2 0  9997", "line2": "2 35611  74.0218 201.0005 0022412 275.1179  84.7435 14.72378528871263"}}, "geometry": {"type": "Point", "coordinates": [165.98310353039165, -61.420949534128255]}}, {"type": "Feature", "properties": {"norad_id": 35614, "name": "COSMOS 2251 DEB", "group": "cosmos-2251-debris", "lat": -63.157364283190596, "lon": -159.56613751816968, "alt_km": 639.9924876393034, "timestamp": "2025-12-03T06:58:43.638440+00:00", "meta": {"OBJECT_NAME": "COSMOS 2251 DEB", "OBJECT_ID": "1993-036ANH", "EPOCH": "2025-11-28T17:49:08.774688", "MEAN_MOTION": 14.66804035, "ECCENTRICITY": 0.0076739, "INCLINATION": 73.9598, "RA_OF_ASC_NODE": 354.6008, "ARG_OF_PERICENTER": 212.3283, "MEAN_ANOMALY": 147.3173, "EPHEMERIS_TYPE": 0, "CLASSIFICATION_TYPE": "U", "NORAD_CAT_ID": 35614, "ELEMENT_SET_NO": 999, "REV_AT_EPOCH": 87524, "BSTAR": 0.00086232481, "MEAN_MOTION_DOT": 4.997e-05, "MEAN_MOTION_DDOT": 0}, "tle": {"line1": "1 35614U 93036ANH 25332.74246267  .00004997  00000+0  86232-3 0  9995", "line2": "2 35614  73.9598 354.6008 0076739 212.3283 147.3173 14.66804035875240"}}, "geometry": {"type": "Point", "coordinates": [-159.56613751816968, -63.157364283190596]}}]}